STARLINK-31442          
1 59859U 24098B   26067.98862602 -.00000728  00000+0 -16929-4 0  9990
2 59859  43.0040 285.8538 0001272 275.8834  84.1873 15.27569616101693
XCUBE-1                 
1 62400U 24247Z   26068.48297321  .00009773  00000+0  36224-3 0  9994
2 62400  44.9938 117.7807 0005235 331.1499  28.9094 15.27910558 67702
